{
  "type": "FeatureCollection", 
  "features": [
    {
      "type": "Feature",
      "properties": {
        "addr:street": "улица Достык",
        "addr:housenumber": "240"
      },
      "geometry": {
        "type": "Point", 
        "coordinates": [76.9380, 43.2280]
      }
    },
    {
      "type": "Feature",
      "properties": {
        "addr:street": "проспект Абая",
        "addr:housenumber": "150"
      },
      "geometry": {
        "type": "Point",
        "coordinates": [76.9200, 43.2380]
      }
    },
    {
      "type": "Feature",
      "properties": {
        "addr:street": "улица Толе би",
        "addr:housenumber": "59"
      },
      "geometry": {
        "type": "Point",
        "coordinates": [76.9150, 43.2500]
      }
    },
    {
      "type": "Feature",
      "properties": {
        "addr:street": "улица Панфилова",
        "addr:housenumber": "98"
      },
      "geometry": {
        "type": "Point",
        "coordinates": [76.9450, 43.2350]
      }
    },
    {
      "type": "Feature",
      "properties": {
        "addr:street": "проспект Назарбаева",
        "addr:housenumber": "223"
      },
      "geometry": {
        "type": "Point",
        "coordinates": [76.8950, 43.2420]
      }
    }
  ]
}
